[{"OBJECT_NAME":"STARLINK-5895","OBJECT_ID":"2023-037BC","EPOCH":"2026-03-09T22:23:45.381696","MEAN_MOTION":15.07243555,"ECCENTRICITY":0.00049855,"INCLINATION":69.9972,"RA_OF_ASC_NODE":260.028,"ARG_OF_PERICENTER":264.4993,"MEAN_ANOMALY":95.5602,"EPHEMERIS_TYPE":0,"CLASSIFICATION_TYPE":"U","NORAD_CAT_ID":55964,"ELEMENT_SET_NO":999,"REV_AT_EPOCH":16460,"BSTAR":0.00072849946,"MEAN_MOTION_DOT":0.00010921,"MEAN_MOTION_DDOT":0},{"OBJECT_NAME":"STARLINK-34613","OBJECT_ID":"2025-184X","EPOCH":"2026-03-09T17:24:54.089856","MEAN_MOTION":15.05686471,"ECCENTRICITY":0.00016923,"INCLINATION":97.6018,"RA_OF_ASC_NODE":122.6564,"ARG_OF_PERICENTER":64.4167,"MEAN_ANOMALY":295.7235,"EPHEMERIS_TYPE":0,"CLASSIFICATION_TYPE":"U","NORAD_CAT_ID":65294,"ELEMENT_SET_NO":999,"REV_AT_EPOCH":3130,"BSTAR":0.00072224796,"MEAN_MOTION_DOT":0.00010386,"MEAN_MOTION_DDOT":0}]
